{
    "links": {
        "self": "http://www.neowsapp.com/rest/v1/neo/3608730?api_key=iIulBulltgU6a56xZRHN4H3l9WmuAYTsLGpBGhQ2"
    },
    "id": "3608730",
    "neo_reference_id": "3608730",
    "name": "(2012 SA3)",
    "designation": "2012 SA3",
    "nasa_jpl_url": "http://ssd.jpl.nasa.gov/sbdb.cgi?sstr=3608730",
    "absolute_magnitude_h": 22.4,
    "estimated_diameter": {
        "kilometers": {
            "estimated_diameter_min": 0.0880146521,
            "estimated_diameter_max": 0.1968067451
        },
        "meters": {
            "estimated_diameter_min": 88.0146520901,
            "estimated_diameter_max": 196.8067450894
        },
        "miles": {
            "estimated_diameter_min": 0.0546897524,
            "estimated_diameter_max": 0.122290004
        },
        "feet": {
            "estimated_diameter_min": 288.7619911632,
            "estimated_diameter_max": 645.6914415591
        }
    },
    "is_potentially_hazardous_asteroid": false,
    "close_approach_data": [
        {
            "close_approach_date": "2012-08-23",
            "close_approach_date_full": "2012-Aug-23 15:52",
            "epoch_date_close_approach": 1345737120000,
            "relative_velocity": {
                "kilometers_per_second": "16.9867329554",
                "kilometers_per_hour": "61152.2386393248",
                "miles_per_hour": "37997.6229478627"
            },
            "miss_distance": {
                "astronomical": "0.0752110033",
                "lunar": "29.2570802837",
                "kilometers": "11251405.894242971",
                "miles": "6991299.4318201598"
            },
            "orbiting_body": "Earth"
        }
    ],
    "orbital_data": {
        "orbit_id": "8",
        "orbit_determination_date": "2017-04-06 08:48:57",
        "first_observation_date": "2012-09-17",
        "last_observation_date": "2012-09-25",
        "data_arc_in_days": 8,
        "observations_used": 33,
        "orbit_uncertainty": "9",
        "minimum_orbit_intersection": ".0260211",
        "jupiter_tisserand_invariant": "3.582",
        "epoch_osculation": "2456189.5",
        "eccentricity": ".6458113982548526",
        "semi_major_axis": "1.958296092475084",
        "inclination": "9.265229093459466",
        "ascending_node_longitude": "168.6440194684315",
        "orbital_period": "1000.958248744969",
        "perihelion_distance": ".6936061547967359",
        "perihelion_argument": "86.67674070732127",
        "aphelion_distance": "3.222986030153432",
        "perihelion_time": "2456115.624836470210",
        "mean_anomaly": "26.56959858622482",
        "mean_motion": ".3596553607019859",
        "equinox": "J2000",
        "orbit_class": {
            "orbit_class_type": "APO",
            "orbit_class_description": "Near-Earth asteroid orbits which cross the Earth’s orbit similar to that of 1862 Apollo",
            "orbit_class_range": "a (semi-major axis) > 1.0 AU; q (perihelion) < 1.017 AU"
        }
    },
    "is_sentry_object": false
}